[{"OBJECT_NAME":"STARLINK-36710","OBJECT_ID":"2026-038L","EPOCH":"2026-03-09T22:00:01.999584","MEAN_MOTION":15.88221795,"ECCENTRICITY":0.00012833,"INCLINATION":97.2714,"RA_OF_ASC_NODE":79.2229,"ARG_OF_PERICENTER":87.3138,"MEAN_ANOMALY":206.7416,"EPHEMERIS_TYPE":0,"CLASSIFICATION_TYPE":"U","NORAD_CAT_ID":67971,"ELEMENT_SET_NO":999,"REV_AT_EPOCH":323,"BSTAR":-0.0063331814,"MEAN_MOTION_DOT":-0.0149455,"MEAN_MOTION_DDOT":0},{"OBJECT_NAME":"FLOCK 4BE-8","OBJECT_ID":"2024-149AZ","EPOCH":"2026-03-09T17:31:01.825536","MEAN_MOTION":15.79197163,"ECCENTRICITY":0.00047231,"INCLINATION":97.3661,"RA_OF_ASC_NODE":155.5351,"ARG_OF_PERICENTER":252.2013,"MEAN_ANOMALY":107.8739,"EPHEMERIS_TYPE":0,"CLASSIFICATION_TYPE":"U","NORAD_CAT_ID":60515,"ELEMENT_SET_NO":999,"REV_AT_EPOCH":8726,"BSTAR":0.0018415661,"MEAN_MOTION_DOT":0.00340995,"MEAN_MOTION_DDOT":0}]
